69P/Taylor,e,22.0612,104.8056,343.5550,3.878628,0.1290289,0.41464101,337.6159,05/23.0/2026,2000,g  9.5,12.0
# From MPEC 2026-J11
70P/Kojima,e,6.6037,119.2362,1.8259,3.674616,0.1399220,0.45497570,232.2524,05/23.0/2026,2000,g 11.0,6.0
# From MPC191599
71P/Clark,e,9.1651,58.7488,210.9391,3.189156,0.1730575,0.48056563,211.7826,05/23.0/2026,2000,g  9.8,6.0
# From MPC191599
73P/Schwassmann-Wachmann,e,6.2453,52.6866,214.2992,3.058400,0.1842734,0.70224219,253.4217,05/23.0/2026,2000,g 11.5,6.0
# From MPC106348
73P-BT/Schwassmann-Wachmann,e,6.2069,52.7496,214.1719,3.059799,0.1841470,0.70243107,253.1404,05/23.0/2026,2000,g 11.5,6.0
# From MPC194199
74P/Smirnova-Chernykh,e,5.8232,48.8024,57.6798,5.197287,0.0831839,0.06942293,8.2429,05/23.0/2026,2000,g  5.0,6.0
# From MPEC 2026-GD5
76P/West-Kohoutek-Ikemura,e,30.4973,84.1088,0.0226,3.467765,0.1526264,0.53953449,6.0074,05/23.0/2026,2000,g  8.0,12.0
# From MPC191599
77P/Longmore,e,24.3345,14.7481,196.5814,3.618949,0.1431628,0.35223605,164.0457,05/23.0/2026,2000,g  7.0,8.0
# From MPC194199
78P/Gehrels,e,6.2576,210.4943,192.7962,3.731805,0.1367180,0.46286335,355.4744,05/23.0/2026,2000,g  5.5,8.0
# From MPC191599
79P/duToit-Hartley,e,3.1490,280.4718,281.7763,2.941750,0.1953419,0.61971698,188.5934,05/23.0/2026,2000,g 16.0,4.0
# From MPC191600
81P/Wild,e,3.2389,136.1090,41.5483,3.450643,0.1537638,0.53805370,192.7514,05/23.0/2026,2000,g  7.0,6.0
# From MPC191600
82P/Gehrels,e,1.1291,239.2872,226.3037,4.135261,0.1172060,0.12360322,339.3565,05/23.0/2026,2000,g  5.0,8.0
# From MPEC 2026-K60
84P/Giclas,e,7.5528,108.0798,281.7404,3.549867,0.1473622,0.51551834,320.8445,05/23.0/2026,2000,g  9.5,8.0
# From MPC191600
86P/Wild,e,15.4465,72.0562,180.9075,3.657200,0.1409227,0.35914174,222.5113,05/23.0/2026,2000,g 11.0,6.0
# From MPC191600
87P/Bus,e,3.8650,175.3838,63.4830,4.472688,0.1041960,0.19465664,241.8362,05/23.0/2026,2000,g  7.2,10.0
# From MPEC 2026-K60
88P/Howell,e,4.3818,56.6681,235.8615,3.109031,0.1797904,0.56327827,11.7299,05/23.0/2026,2000,g 11.0,6.0
# From MPC191600
89P/Russell,e,12.0650,41.3343,250.4892,3.752105,0.1356099,0.40688796,106.8233,05/23.0/2026,2000,g 11.5,6.0
# From MPC191600
90P/Gehrels,e,9.6317,13.1384,29.2412,6.056389,0.0661277,0.51000534,215.3140,05/23.0/2026,2000,g  8.5,6.0
# From MPC191600
91P/Russell,e,15.8970,241.7562,356.7949,4.167662,0.1158418,0.25038299,257.2956,05/23.0/2026,2000,g  7.5,6.0
# From MPC191601
92P/Sanguin,e,19.4761,181.3298,163.7724,5.346748,0.0797204,0.65990371,326.6391,05/23.0/2026,2000,g 12.0,6.0
# From MPC194200
93P/Lovas,e,12.2106,339.5494,75.0467,4.372258,0.1078066,0.61384054,2.1611,05/23.0/2026,2000,g  9.5,6.0
# From MPEC 2026-J11
94P/Russell,e,6.1870,70.8309,92.3979,3.509431,0.1499164,0.36631571,164.5094,05/23.0/2026,2000,g  9.0,6.0
# From MPC191601
96P/Machholz,e,57.5683,93.9561,14.7449,3.030914,0.1867858,0.96173467,225.5035,05/23.0/2026,2000,g 13.0,4.8
# From MPC106348
96P-B/Machholz,e,57.5130,14.4644,94.0840,3.029957,0.1868742,0.96174384,225.6851,05/23.0/2026,2000,g 13.0,4.8
# From MPC191601
97P/Metcalf-Brewington,e,17.9294,184.0582,230.2512,4.772003,0.0945481,0.45944361,147.2614,05/23.0/2026,2000,g  5.5,6.0
# From MPC191601
98P/Takamizawa,e,10.8629,114.4154,161.0267,3.641598,0.1418293,0.60483544,260.9555,05/23.0/2026,2000,g  9.0,8.0
# From MPC191601
99P/Kowal,e,4.3397,28.0400,174.5075,6.092625,0.0655386,0.22911962,98.6230,05/23.0/2026,2000,g  4.5,6.0
# From MPC191601
100P/Hartley,e,25.5694,37.6865,181.8816,3.430155,0.1551434,0.41147516,214.4651,05/23.0/2026,2000,g  9.0,8.0
# From MPC191601
101P/Chernykh,e,5.0485,116.1111,278.0146,5.820074,0.0701958,0.59493876,163.0773,05/23.0/2026,2000,g 10.0,4.8
# From MPC191601
102P/Shoemaker,e,25.8436,339.3415,20.6892,3.821502,0.1319328,0.45566260,257.1181,05/23.0/2026,2000,g  6.5,8.0
# From MPC191602
103P/Hartley,e,13.6012,219.7639,181.3354,3.476446,0.1520551,0.69316569,145.0336,05/23.0/2026,2000,g  8.5,8.0
# From MPC191602
104P/Kowal,e,5.6996,207.1514,227.3459,3.208389,0.1715037,0.66577395,272.8771,05/23.0/2026,2000,g 16.0,4.0
# From MPC191602
105P/SingerBrewster,e,9.1691,192.3844,46.2982,3.472246,0.1523310,0.40922992,73.9259,05/23.0/2026,2000,g 11.5,6.0
# From MPC191602
106P/Schuster,e,19.5238,48.8636,353.7997,3.769107,0.1346934,0.59314582,234.1242,05/23.0/2026,2000,g 14.0,4.8
# From MPC191602
108P/Ciffreo,e,11.4288,50.2712,354.5640,3.744692,0.1360128,0.55528762,233.3809,05/23.0/2026,2000,g  8.0,12.0
# From MPC191602
110P/Hartley,e,11.7115,287.4812,167.6093,3.603103,0.1441083,0.31922735,241.4567,05/23.0/2026,2000,g  1.0,12.0
# From MPC191602
111P/Helin-Roman-Crockett,e,4.2260,89.7319,1.6427,4.153165,0.1164489,0.10707932,209.2400,05/23.0/2026,2000,g  5.0,8.0
# From MPC191602
112P/Urata-Niijima,e,24.2039,31.7945,21.5849,3.521137,0.1491694,0.59071105,341.8224,05/23.0/2026,2000,g 14.0,6.0
# From MPC191602
113P/Spitaler,e,5.2880,306.6091,115.7722,3.697126,0.1386461,0.41928603,201.2267,05/23.0/2026,2000,g 13.5,4.0
# From MPC191603
114P/Wiseman-Skiff,e,18.3034,271.0217,172.8499,3.538295,0.1480857,0.55608305,342.9703,05/23.0/2026,2000,g 11.5,6.0
# From MPC191603
115P/Maury,e,11.7151,175.8304,121.0274,4.268114,0.1117764,0.51959397,237.6733,05/23.0/2026,2000,g 10.5,6.0
# From MPC191603
116P/Wild,e,3.6055,20.9588,173.1521,3.484685,0.1515161,0.37121115,212.9847,05/23.0/2026,2000,g  2.5,10.0
# From MPC194200
117P/Helin-Roman-Alu,e,8.6432,58.7151,225.0486,4.130413,0.1174124,0.24882167,166.1932,05/23.0/2026,2000,g  2.5,8.0
# From MPC191603
118P/Shoemaker-Levy,e,10.0938,142.0409,314.9924,3.349165,0.1608049,0.45372950,205.0149,05/23.0/2026,2000,g 12.0,4.0
# From MPC191603
119P/Parker-Hartley,e,7.3928,104.5415,322.3104,3.810911,0.1324832,0.38773301,182.7946,05/23.0/2026,2000,g  3.5,8.0
# From MPC191603
120P/Mueller,e,8.4780,358.6344,36.8482,3.971263,0.1245406,0.37367346,229.4278,05/23.0/2026,2000,g 12.0,4.0
# From MPEC 2026-K60
121P/Shoemaker-Holt,e,20.1615,94.1067,12.1380,4.591942,0.1001635,0.18659096,105.8045,05/23.0/2026,2000,g  6.5,8.0
# From MPEC 2026-HH0
123P/West-Hartley,e,15.2820,45.8659,103.8830,3.888247,0.1285503,0.44483068,344.3256,05/23.0/2026,2000,g  4.0,10.0
# From MPEC 2026-K60
124P/Mrkos,e,31.4057,359.9469,185.1207,3.377257,0.1588027,0.48627984,354.9820,05/23.0/2026,2000,g 13.5,2.8
# From MPC191604
125P/Spacewatch,e,9.9863,153.1540,87.0684,3.126868,0.1782542,0.51207303,143.8284,05/23.0/2026,2000,g 13.0,6.0
# From MPC191604
126P/IRAS,e,45.8756,357.8529,356.5332,5.623470,0.0739090,0.69574403,77.8600,05/23.0/2026,2000,g  6.0,8.0
# From MPC191604
127P/Holt-Olmstead,e,14.2904,13.6129,6.3315,3.455533,0.1534375,0.35831817,212.1649,05/23.0/2026,2000,g 11.0,6.0
# From MPC194200
128P/Shoemaker-Holt,e,4.3717,214.3067,210.5664,4.480722,0.1039159,0.32225244,354.2792,05/23.0/2026,2000,g  8.5,4.0
# From MPC191604
129P/Shoemaker-Levy,e,3.4411,184.8287,308.1334,4.295209,0.1107204,0.08597528,140.0107,05/23.0/2026,2000,g 11.0,4.0
# From MPC191604
130P/McNaught-Hughes,e,5.9709,69.6616,247.7265,3.412795,0.1563287,0.45880555,119.8473,05/23.0/2026,2000,g 10.0,6.0
# From MPC191604
131P/Mueller,e,7.3623,214.1322,179.2826,3.673833,0.1399668,0.34460152,13.4719,05/23.0/2026,2000,g 11.0,4.0
# From MPC191604
132P/Helin-Roman-Alu,e,5.3754,173.9574,216.5281,3.893659,0.1282824,0.56353348,212.0178,05/23.0/2026,2000,g 11.0,6.0
# From MPC191604
134P/Kowal-Vavrova,e,4.3315,202.0188,18.5589,6.278377,0.0626517,0.58580243,276.9785,05/23.0/2026,2000,g 11.5,4.0
# From MPC191605
135P/Shoemaker-Levy,e,6.0615,213.0145,22.2936,3.802421,0.1329272,0.29317372,200.6522,05/23.0/2026,2000,g  7.0,8.0
# From MPC194200
136P/Mueller,e,9.4299,137.3917,225.6141,4.192570,0.1148110,0.29365645,57.7910,05/23.0/2026,2000,g 11.0,4.0
# From MPEC 2026-K60
137P/Shoemaker-Levy,e,4.8578,232.9304,141.1850,4.525088,0.1023914,0.57256296,278.2190,05/23.0/2026,2000,g 11.0,4.0
# From MPC194200
138P/Shoemaker-Levy,e,10.0984,309.2189,95.7619,3.616116,0.1433312,0.53146463,8.5519,05/23.0/2026,2000,g 15.0,6.0
# From MPC191605
139P/Vaisala-Oterma,e,2.3382,242.1215,166.1105,4.511516,0.1028538,0.24804291,316.1523,05/23.0/2026,2000,g  9.5,4.0
# From MPC191605
140P/Bowell-Skiff,e,3.6713,343.3429,172.1540,6.415628,0.0606520,0.69482022,241.0324,05/23.0/2026,2000,g 11.5,6.0
# From MPC191605
141P/Machholz,e,13.9603,241.7716,153.6511,3.056401,0.1844542,0.73581242,5.5349,05/23.0/2026,2000,g 12.0,12.0
# From MPEC 2015-KD9
141P-A/Machholz,e,13.9430,153.4938,241.9416,3.056860,0.1844127,0.73584937,5.4665,05/23.0/2026,2000,g 12.0,12.0
# From MPC 37026
141P-D/Machholz,e,13.8345,153.2188,242.1776,3.065000,0.1836785,0.73672752,0.8068,05/23.0/2026,2000,g 12.0,12.0
# From MPC186636
141P-H/Machholz,e,14.0164,241.8469,153.6270,3.045949,0.1854044,0.73460540,9.4959,05/23.0/2026,2000,g 18.5,4.0
# From MPEC 2022-SU8
141P-I/Machholz,e,13.9429,153.4492,241.9497,3.047228,0.1852877,0.73507180,7.2954,05/23.0/2026,2000,g 17.5,4.0
# From MPC191605
142P/Ge-Wang,e,12.2429,175.9631,174.0146,5.003412,0.0880653,0.49568319,161.9667,05/23.0/2026,2000,g  8.5,6.0
# From MPEC 2026-J34
143P/Kowal-Mrkos,e,5.3939,242.0089,304.8992,4.748895,0.0952391,0.37735350,339.1154,05/23.0/2026,2000,g 13.5,2.0
# From MPC191605
144P/Kushida,e,3.9303,242.9217,216.3965,3.835305,0.1312213,0.63485552,111.2934,05/23.0/2026,2000,g  8.5,8.0
# From MPEC 2026-GD5
145P/Shoemaker-Levy,e,11.2779,26.7646,10.4311,4.130081,0.1174265,0.54244402,13.0395,05/23.0/2026,2000,g 13.5,4.0
# From MPC191606
146P/Shoemaker-LINEAR,e,23.1183,53.3068,317.0075,4.020761,0.1222480,0.64763829,80.1557,05/23.0/2026,2000,g 15.0,4.0
# From MPC191606
147P/Kushida-Muramatsu,e,2.3112,91.6673,348.6674,4.009894,0.1227453,0.21145021,110.2272,05/23.0/2026,2000,g 14.0,4.0
# From MPC191606
148P/Anderson-LINEAR,e,3.6584,89.1934,8.1065,3.620309,0.1430822,0.55033055,205.7922,05/23.0/2026,2000,g 16.0,2.0
# From MPC191606
149P/Mueller,e,34.2681,143.6954,30.0180,4.135452,0.1171978,0.32450616,335.8059,05/23.0/2026,2000,g  8.0,8.0
# From MPC191606
150P/LONEOS,e,18.5462,272.0515,246.1344,3.872425,0.1293390,0.54942224,103.6352,05/23.0/2026,2000,g 13.5,4.0
# From MPC191606
